STARLINK-36151          
1 67123U 25299X   26008.25003472  .00062895  00000+0  15028-2 0  9992
2 67123  43.0005 157.1113 0000996 258.1401 128.8068 15.40653610  5062
STARLINK-36195          
1 67124U 25299Y   26008.25003472  .00072590  00000+0  17307-2 0  9998
2 67124  43.0000 156.9598 0001159 279.1674 169.9207 15.40662269  5060
STARLINK-36219          
1 67125U 25299Z   26007.70814746  .00081577  00000+0  13881-2 0  9990
2 67125  43.0001 159.9826 0004926 131.9398 228.1883 15.50442205  3717
STARLINK-36223          
1 67126U 25299AA  26007.70778066  .00078444  00000+0  13282-2 0  9999
2 67126  43.0004 159.9800 0001921 265.2430  94.8211 15.50607082  3712
STARLINK-36164          
1 67127U 25299AB  26007.70743749  .00103730  00000+0  17498-2 0  9990
2 67127  43.0002 159.9775 0001506 265.6144  94.4544 15.50592128  3716
STARLINK-35685          
1 67128U 25299AC  26008.25003472  .00092234  00000+0  21883-2 0  9993
2 67128  43.0002 157.0478 0002249 288.8284 122.9579 15.40704370  5072
STARLINK-36214          
1 67129U 25299AD  26007.70709438  .00094313  00000+0  15917-2 0  9999
2 67129  43.0006 159.9741 0001560 260.8760  99.1923 15.50621538  3717
STARLINK-36194          
1 67130U 25299AE  26007.70641266  .00106350  00000+0  17929-2 0  9995
2 67130  42.9999 159.9704 0003473 262.6217  97.4249 15.50593986  3716
ZIYUAN 3-04 (ZY 3-04)   
1 67131U 25300A   26007.93288203  .00001658  00000+0  76926-4 0  9991
2 67131  97.4896  86.9084 0004017 124.0140 236.1477 15.21443300  3479
CZ-4B R/B               
1 67132U 25300B   25365.84118213  .00055316  31762-5  24195-3 0  9996
2 67132  97.5610  81.0876 0162680 319.8916  39.0424 15.67589119  2465
KUIPER-00144            
1 67133U 25301A   26008.32367814  .00051493  00000+0  14468-2 0  9997
2 67133  51.8704 356.9181 0006215 156.3439 203.7834 15.36002885  4453
KUIPER-00164            
1 67134U 25301B   26008.24861872  .00023321  00000+0  65260-3 0  9998
2 67134  51.8724 357.1692 0002833 138.0222 222.0982 15.36537900  4623
