CCSDS_OMM_VERS = 2.0
CREATION_DATE  = 
ORIGINATOR     = 

OBJECT_NAME    = STARLINK-36151
OBJECT_ID      = 2025-299X
CENTER_NAME    = EARTH
REF_FRAME      = TEME
TIME_SYSTEM    = UTC
MEAN_ELEMENT_THEORY = SGP/SGP4

EPOCH          = 2026-01-08T06:00:02.999808
MEAN_MOTION    = 15.40653610
ECCENTRICITY   = .00009969
INCLINATION    = 43.0005
RA_OF_ASC_NODE = 157.1113
ARG_OF_PERICENTER = 258.1401
MEAN_ANOMALY   = 128.8068

EPHEMERIS_TYPE = 0
CLASSIFICATION_TYPE = U
NORAD_CAT_ID   = 67123
ELEMENT_SET_NO = 999
REV_AT_EPOCH   = 506
BSTAR          = .15028322E-2
MEAN_MOTION_DOT = .62895E-3
MEAN_MOTION_DDOT = 0

CCSDS_OMM_VERS = 2.0
CREATION_DATE  = 
ORIGINATOR     = 

OBJECT_NAME    = STARLINK-36195
OBJECT_ID      = 2025-299Y
CENTER_NAME    = EARTH
REF_FRAME      = TEME
TIME_SYSTEM    = UTC
MEAN_ELEMENT_THEORY = SGP/SGP4

EPOCH          = 2026-01-08T06:00:02.999808
MEAN_MOTION    = 15.40662269
ECCENTRICITY   = .00011591
INCLINATION    = 43.0000
RA_OF_ASC_NODE = 156.9598
ARG_OF_PERICENTER = 279.1674
MEAN_ANOMALY   = 169.9207

EPHEMERIS_TYPE = 0
CLASSIFICATION_TYPE = U
NORAD_CAT_ID   = 67124
ELEMENT_SET_NO = 999
REV_AT_EPOCH   = 506
BSTAR          = .17306692E-2
MEAN_MOTION_DOT = .7259E-3
MEAN_MOTION_DDOT = 0

CCSDS_OMM_VERS = 2.0
CREATION_DATE  = 
ORIGINATOR     = 

OBJECT_NAME    = STARLINK-36219
OBJECT_ID      = 2025-299Z
CENTER_NAME    = EARTH
REF_FRAME      = TEME
TIME_SYSTEM    = UTC
MEAN_ELEMENT_THEORY = SGP/SGP4

EPOCH          = 2026-01-07T16:59:43.940544
MEAN_MOTION    = 15.50442205
ECCENTRICITY   = .00049268
INCLINATION    = 43.0001
RA_OF_ASC_NODE = 159.9826
ARG_OF_PERICENTER = 131.9398
MEAN_ANOMALY   = 228.1883

EPHEMERIS_TYPE = 0
CLASSIFICATION_TYPE = U
NORAD_CAT_ID   = 67125
ELEMENT_SET_NO = 999
REV_AT_EPOCH   = 371
BSTAR          = .13881423E-2
MEAN_MOTION_DOT = .81577E-3
MEAN_MOTION_DDOT = 0

CCSDS_OMM_VERS = 2.0
CREATION_DATE  = 
ORIGINATOR     = 

OBJECT_NAME    = STARLINK-36223
OBJECT_ID      = 2025-299AA
CENTER_NAME    = EARTH
REF_FRAME      = TEME
TIME_SYSTEM    = UTC
MEAN_ELEMENT_THEORY = SGP/SGP4

EPOCH          = 2026-01-07T16:59:12.249024
MEAN_MOTION    = 15.50607082
ECCENTRICITY   = .00019211
INCLINATION    = 43.0004
RA_OF_ASC_NODE = 159.9800
ARG_OF_PERICENTER = 265.2430
MEAN_ANOMALY   = 94.8211

EPHEMERIS_TYPE = 0
CLASSIFICATION_TYPE = U
NORAD_CAT_ID   = 67126
ELEMENT_SET_NO = 999
REV_AT_EPOCH   = 371
BSTAR          = .13282347E-2
MEAN_MOTION_DOT = .78444E-3
MEAN_MOTION_DDOT = 0

CCSDS_OMM_VERS = 2.0
CREATION_DATE  = 
ORIGINATOR     = 

OBJECT_NAME    = STARLINK-36164
OBJECT_ID      = 2025-299AB
CENTER_NAME    = EARTH
REF_FRAME      = TEME
TIME_SYSTEM    = UTC
MEAN_ELEMENT_THEORY = SGP/SGP4

EPOCH          = 2026-01-07T16:58:42.599136
MEAN_MOTION    = 15.50592128
ECCENTRICITY   = .0001506
INCLINATION    = 43.0002
RA_OF_ASC_NODE = 159.9775
ARG_OF_PERICENTER = 265.6144
MEAN_ANOMALY   = 94.4544

EPHEMERIS_TYPE = 0
CLASSIFICATION_TYPE = U
NORAD_CAT_ID   = 67127
ELEMENT_SET_NO = 999
REV_AT_EPOCH   = 371
BSTAR          = .17498119E-2
MEAN_MOTION_DOT = .10373E-2
MEAN_MOTION_DDOT = 0

CCSDS_OMM_VERS = 2.0
CREATION_DATE  = 
ORIGINATOR     = 

OBJECT_NAME    = STARLINK-35685
OBJECT_ID      = 2025-299AC
CENTER_NAME    = EARTH
REF_FRAME      = TEME
TIME_SYSTEM    = UTC
MEAN_ELEMENT_THEORY = SGP/SGP4

EPOCH          = 2026-01-08T06:00:02.999808
MEAN_MOTION    = 15.40704370
ECCENTRICITY   = .00022498
INCLINATION    = 43.0002
RA_OF_ASC_NODE = 157.0478
ARG_OF_PERICENTER = 288.8284
MEAN_ANOMALY   = 122.9579

EPHEMERIS_TYPE = 0
CLASSIFICATION_TYPE = U
NORAD_CAT_ID   = 67128
ELEMENT_SET_NO = 999
REV_AT_EPOCH   = 507
BSTAR          = .21882739E-2
MEAN_MOTION_DOT = .92234E-3
MEAN_MOTION_DDOT = 0

CCSDS_OMM_VERS = 2.0
CREATION_DATE  = 
ORIGINATOR     = 

OBJECT_NAME    = STARLINK-36214
OBJECT_ID      = 2025-299AD
CENTER_NAME    = EARTH
REF_FRAME      = TEME
TIME_SYSTEM    = UTC
MEAN_ELEMENT_THEORY = SGP/SGP4

EPOCH          = 2026-01-07T16:58:12.954432
MEAN_MOTION    = 15.50621538
ECCENTRICITY   = .00015602
INCLINATION    = 43.0006
RA_OF_ASC_NODE = 159.9741
ARG_OF_PERICENTER = 260.8760
MEAN_ANOMALY   = 99.1923

EPHEMERIS_TYPE = 0
CLASSIFICATION_TYPE = U
NORAD_CAT_ID   = 67129
ELEMENT_SET_NO = 999
REV_AT_EPOCH   = 371
BSTAR          = .15917205E-2
MEAN_MOTION_DOT = .94313E-3
MEAN_MOTION_DDOT = 0

CCSDS_OMM_VERS = 2.0
CREATION_DATE  = 
ORIGINATOR     = 

OBJECT_NAME    = STARLINK-36194
OBJECT_ID      = 2025-299AE
CENTER_NAME    = EARTH
REF_FRAME      = TEME
TIME_SYSTEM    = UTC
MEAN_ELEMENT_THEORY = SGP/SGP4

EPOCH          = 2026-01-07T16:57:14.053824
MEAN_MOTION    = 15.50593986
ECCENTRICITY   = .00034733
INCLINATION    = 42.9999
RA_OF_ASC_NODE = 159.9704
ARG_OF_PERICENTER = 262.6217
MEAN_ANOMALY   = 97.4249

EPHEMERIS_TYPE = 0
CLASSIFICATION_TYPE = U
NORAD_CAT_ID   = 67130
ELEMENT_SET_NO = 999
REV_AT_EPOCH   = 371
BSTAR          = .17928919E-2
MEAN_MOTION_DOT = .10635E-2
MEAN_MOTION_DDOT = 0

CCSDS_OMM_VERS = 2.0
CREATION_DATE  = 
ORIGINATOR     = 

OBJECT_NAME    = ZIYUAN 3-04 (ZY 3-04)
OBJECT_ID      = 2025-300A
CENTER_NAME    = EARTH
REF_FRAME      = TEME
TIME_SYSTEM    = UTC
MEAN_ELEMENT_THEORY = SGP/SGP4

EPOCH          = 2026-01-07T22:23:21.007392
MEAN_MOTION    = 15.21443300
ECCENTRICITY   = .0004017
INCLINATION    = 97.4896
RA_OF_ASC_NODE = 86.9084
ARG_OF_PERICENTER = 124.0140
MEAN_ANOMALY   = 236.1477

EPHEMERIS_TYPE = 0
CLASSIFICATION_TYPE = U
NORAD_CAT_ID   = 67131
ELEMENT_SET_NO = 999
REV_AT_EPOCH   = 347
BSTAR          = .76926E-4
MEAN_MOTION_DOT = .1658E-4
MEAN_MOTION_DDOT = 0

CCSDS_OMM_VERS = 2.0
CREATION_DATE  = 
ORIGINATOR     = 

OBJECT_NAME    = CZ-4B R/B
OBJECT_ID      = 2025-300B
CENTER_NAME    = EARTH
REF_FRAME      = TEME
TIME_SYSTEM    = UTC
MEAN_ELEMENT_THEORY = SGP/SGP4

EPOCH          = 2025-12-31T20:11:18.136032
MEAN_MOTION    = 15.67589119
ECCENTRICITY   = .01626808
INCLINATION    = 97.5610
RA_OF_ASC_NODE = 81.0876
ARG_OF_PERICENTER = 319.8916
MEAN_ANOMALY   = 39.0424

EPHEMERIS_TYPE = 0
CLASSIFICATION_TYPE = U
NORAD_CAT_ID   = 67132
ELEMENT_SET_NO = 999
REV_AT_EPOCH   = 246
BSTAR          = .24194627E-3
MEAN_MOTION_DOT = .55316E-3
MEAN_MOTION_DDOT = .317617E-5

CCSDS_OMM_VERS = 2.0
CREATION_DATE  = 
ORIGINATOR     = 

OBJECT_NAME    = KUIPER-00144
OBJECT_ID      = 2025-301A
CENTER_NAME    = EARTH
REF_FRAME      = TEME
TIME_SYSTEM    = UTC
MEAN_ELEMENT_THEORY = SGP/SGP4

EPOCH          = 2026-01-08T07:46:05.791296
MEAN_MOTION    = 15.36002885
ECCENTRICITY   = .00062155
INCLINATION    = 51.8704
RA_OF_ASC_NODE = 356.9181
ARG_OF_PERICENTER = 156.3439
MEAN_ANOMALY   = 203.7834

EPHEMERIS_TYPE = 0
CLASSIFICATION_TYPE = U
NORAD_CAT_ID   = 67133
ELEMENT_SET_NO = 999
REV_AT_EPOCH   = 445
BSTAR          = .14467765E-2
MEAN_MOTION_DOT = .51493E-3
MEAN_MOTION_DDOT = 0

CCSDS_OMM_VERS = 2.0
CREATION_DATE  = 
ORIGINATOR     = 

OBJECT_NAME    = KUIPER-00164
OBJECT_ID      = 2025-301B
CENTER_NAME    = EARTH
REF_FRAME      = TEME
TIME_SYSTEM    = UTC
MEAN_ELEMENT_THEORY = SGP/SGP4

EPOCH          = 2026-01-08T05:58:00.657408
MEAN_MOTION    = 15.36537900
ECCENTRICITY   = .00028338
INCLINATION    = 51.8724
RA_OF_ASC_NODE = 357.1692
ARG_OF_PERICENTER = 138.0222
MEAN_ANOMALY   = 222.0982

EPHEMERIS_TYPE = 0
CLASSIFICATION_TYPE = U
NORAD_CAT_ID   = 67134
ELEMENT_SET_NO = 999
REV_AT_EPOCH   = 462
BSTAR          = .65260221E-3
MEAN_MOTION_DOT = .23321E-3
MEAN_MOTION_DDOT = 0

